[Satellite]
VERSION=1.1
NAME=PRISM
NICKNAME=PRISM
TLE1=1 33493U 09002B   22335.71743080  .00005391  00000-0  41968-3 0  9997
TLE2=2 33493  98.2515 332.1891 0016399 356.3486   3.7614 15.01607618754062
STATUS=0
